0 FENGYUN 1C DEB
1 30520U 99025AJJ 13281.21493178  .00001355  00000-0  23480-3 0  7548
2 30520 098.7175 053.5898 0186466 030.8058 086.8616 14.59415817356242
0 FENGYUN 1C DEB
1 30520U 99025AJJ 13282.36284039  .00001607  00000-0  27645-3 0  7557
2 30520 098.7175 054.7959 0186375 027.2702 357.8593 14.59428426356412
0 FENGYUN 1C DEB
1 30520U 99025AJJ 13283.61676659  .00001578  00000-0  27162-3 0  7561
2 30520 098.7177 056.1134 0186282 023.4180 105.9022 14.59432373356594
0 FENGYUN 1C DEB
1 30520U 99025AJJ 13286.07197730  .00001547  00000-0  26666-3 0  7588
2 30520 098.7182 058.6933 0186136 015.8682 045.4876 14.59438962356959
0 FENGYUN 1C DEB
1 30520U 99025AJJ 13287.18044101  .00002230  00000-0  37968-3 0  7592
2 30520 098.7175 059.8576 0186184 012.4761 109.3295 14.59439530357117
0 FENGYUN 1C DEB
1 30520U 99025AJJ 13288.62135534  .00002558  00000-0  43387-3 0  7600
2 30520 098.7181 061.3718 0186070 008.0511 119.8909 14.59449712357322
0 FENGYUN 1C DEB
1 30520U 99025AJJ 13289.64806336  .00002863  00000-0  48430-3 0  7612
2 30520 098.7185 062.4508 0185994 004.8943 114.2438 14.59454474357475
0 FENGYUN 1C DEB
1 30520U 99025AJJ 13291.34911501  .00002534  00000-0  43018-3 0  7626
2 30520 098.7190 064.2386 0185857 359.6781 051.6442 14.59461646357720
0 FENGYUN 1C DEB
1 30520U 99025AJJ 13292.87667119  .00002579  00000-0  43760-3 0  7632
2 30520 098.7192 065.8442 0185757 354.9674 157.5553 14.59467979357948
0 FENGYUN 1C DEB
1 30520U 99025AJJ 13294.17377463  .00003077  00000-0  52011-3 0  7641
2 30520 098.7193 067.2076 0185680 350.9728 132.6751 14.59472181358136
0 FENGYUN 1C DEB
1 30520U 99025AJJ 13295.20136726  .00003193  00000-0  53931-3 0  7653
2 30520 098.7192 068.2878 0185614 347.8089 131.7709 14.59476169358287
